{
  "norad_id": 65208,
  "name": "STARLINK-34841",
  "history": [
    {
      "epoch": "2026-03-28T15:49:51.443616Z",
      "apogee_km": 476.74965915167104,
      "perigee_km": 473.6927872497954,
      "latitude_deg": -6.387424955307754e-05,
      "longitude_deg": 1.1554138951329778,
      "height_km": 476.33335070284204,
      "semi_major_axis_km": 6853.358223200733,
      "eccentricity": 0.00022302,
      "inclination_deg": 53.1602,
      "raan_deg": 64.6967,
      "arg_perigee_deg": 98.1005,
      "mean_anomaly_deg": 262.0248,
      "mean_motion_rev_day": 15.30197939
    },
    {
      "epoch": "2026-03-29T04:22:16.712832Z",
      "apogee_km": 476.2603584281087,
      "perigee_km": 474.072783928189,
      "latitude_deg": 3.5413005993652794e-05,
      "longitude_deg": 170.11138544669348,
      "height_km": 476.0339581661182,
      "semi_major_axis_km": 6853.303571178149,
      "eccentricity": 0.0001596,
      "inclination_deg": 53.1618,
      "raan_deg": 62.2729,
      "arg_perigee_deg": 88.4058,
      "mean_anomaly_deg": 271.7126,
      "mean_motion_rev_day": 15.30216243
    },
    {
      "epoch": "2026-03-30T02:19:00.465024Z",
      "apogee_km": 476.0544868986726,
      "perigee_km": 474.16162061482464,
      "latitude_deg": -5.4937844194798037e-05,
      "longitude_deg": -164.22005125235782,
      "height_km": 476.1690498079006,
      "semi_major_axis_km": 6853.245053756748,
      "eccentricity": 0.0001381,
      "inclination_deg": 53.1611,
      "raan_deg": 58.0251,
      "arg_perigee_deg": 99.9116,
      "mean_anomaly_deg": 260.204,
      "mean_motion_rev_day": 15.30235842
    },
    {
      "epoch": "2026-03-30T05:27:07.299648Z",
      "apogee_km": 476.40041386847315,
      "perigee_km": 474.2262252890887,
      "latitude_deg": -6.900051284492045e-06,
      "longitude_deg": 148.01604769097162,
      "height_km": 475.97503528861665,
      "semi_major_axis_km": 6853.45031957878,
      "eccentricity": 0.00015862,
      "inclination_deg": 53.1612,
      "raan_deg": 57.4184,
      "arg_perigee_deg": 77.4566,
      "mean_anomaly_deg": 282.6612,
      "mean_motion_rev_day": 15.30167095
    },
    {
      "epoch": "2026-03-30T14:51:26.634528Z",
      "apogee_km": 476.3191289690658,
      "perigee_km": 474.1050860064006,
      "latitude_deg": 3.8893424513725837e-05,
      "longitude_deg": 4.729055406904634,
      "height_km": 475.90285994307135,
      "semi_major_axis_km": 6853.349107487733,
      "eccentricity": 0.00016153,
      "inclination_deg": 53.1613,
      "raan_deg": 55.5982,
      "arg_perigee_deg": 79.2219,
      "mean_anomaly_deg": 280.8964,
      "mean_motion_rev_day": 15.30200992
    },
    {
      "epoch": "2026-03-30T21:07:39.300672Z",
      "apogee_km": 476.34830702488034,
      "perigee_km": 474.01982265988863,
      "latitude_deg": 6.532869367931926e-05,
      "longitude_deg": -90.7930075458237,
      "height_km": 475.87268230409643,
      "semi_major_axis_km": 6853.321064842384,
      "eccentricity": 0.00016988,
      "inclination_deg": 53.1611,
      "raan_deg": 54.3864,
      "arg_perigee_deg": 79.6578,
      "mean_anomaly_deg": 280.4615,
      "mean_motion_rev_day": 15.30210384
    },
    {
      "epoch": "2026-03-31T14:22:15.108672Z",
      "apogee_km": 476.29547939906934,
      "perigee_km": 474.18326880057157,
      "latitude_deg": -2.489315327675216e-05,
      "longitude_deg": 6.5102698701486155,
      "height_km": 476.13305282940803,
      "semi_major_axis_km": 6853.37637409982,
      "eccentricity": 0.0001541,
      "inclination_deg": 53.1607,
      "raan_deg": 51.0471,
      "arg_perigee_deg": 89.7778,
      "mean_anomaly_deg": 270.3399,
      "mean_motion_rev_day": 15.3019186
    },
    {
      "epoch": "2026-04-01T13:53:03.356448Z",
      "apogee_km": 476.4983704651968,
      "perigee_km": 473.9201416036767,
      "latitude_deg": 9.647242188757546e-06,
      "longitude_deg": 8.291903366956483,
      "height_km": 476.03172036353874,
      "semi_major_axis_km": 6853.346256034437,
      "eccentricity": 0.0001881,
      "inclination_deg": 53.1596,
      "raan_deg": 46.4954,
      "arg_perigee_deg": 86.6776,
      "mean_anomaly_deg": 273.444,
      "mean_motion_rev_day": 15.30201947
    },
    {
      "epoch": "2026-04-02T21:14:06.437472Z",
      "apogee_km": 475.9667107475734,
      "perigee_km": 474.3345317676949,
      "latitude_deg": 8.17247268960298e-06,
      "longitude_deg": -109.3247680931277,
      "height_km": 476.1021983387147,
      "semi_major_axis_km": 6853.287621257634,
      "eccentricity": 0.00011908,
      "inclination_deg": 53.1594,
      "raan_deg": 40.4291,
      "arg_perigee_deg": 93.7552,
      "mean_anomaly_deg": 266.3585,
      "mean_motion_rev_day": 15.30221585
    }
  ]
}